[{"OBJECT_NAME":"STARLINK-34830","OBJECT_ID":"2025-192B","EPOCH":"2026-03-09T17:53:24.967968","MEAN_MOTION":15.31064913,"ECCENTRICITY":0.00031616,"INCLINATION":53.1594,"RA_OF_ASC_NODE":232.0306,"ARG_OF_PERICENTER":350.889,"MEAN_ANOMALY":9.2053,"EPHEMERIS_TYPE":0,"CLASSIFICATION_TYPE":"U","NORAD_CAT_ID":65405,"ELEMENT_SET_NO":999,"REV_AT_EPOCH":2940,"BSTAR":0.0048941642,"MEAN_MOTION_DOT":0.00151602,"MEAN_MOTION_DDOT":0},{"OBJECT_NAME":"SPACEMOBILE-005 DEB","OBJECT_ID":"2024-163K","EPOCH":"2026-03-09T07:33:15.902496","MEAN_MOTION":15.31481997,"ECCENTRICITY":0.00072885,"INCLINATION":52.9762,"RA_OF_ASC_NODE":31.7924,"ARG_OF_PERICENTER":175.8731,"MEAN_ANOMALY":184.2329,"EPHEMERIS_TYPE":0,"CLASSIFICATION_TYPE":"U","NORAD_CAT_ID":62373,"ELEMENT_SET_NO":999,"REV_AT_EPOCH":8280,"BSTAR":0.00063853778,"MEAN_MOTION_DOT":0.00019381,"MEAN_MOTION_DDOT":0}]
